FLOCK 4G-5              
1 62663U 25009BG  26068.45638436  .00011278  00000+0  40688-3 0  9997
2 62663  97.4058 151.2478 0002094 314.5072  45.5996 15.28679529 63699
STARLINK-36553          
1 67506U 26012P   26068.08572399  .00035703  00000+0  13011-2 0  9995
2 67506  43.0032 317.4469 0001857 254.6779 105.3867 15.27569407  7679
